SILVERSAT               
1 66909U 98067XV  26037.71391803  .00138156  00000+0  14992-2 0  9990
2 66909  51.6272 222.3150 0002550 223.1841 136.8954 15.62543187 10338
ISS OBJECT XW           
1 66910U 98067XW  26037.72755906  .00114383  00000+0  13119-2 0  9997
2 66910  51.6257 222.4006 0000958 240.3067 119.7831 15.61211268 10330
ISS OBJECT XX           
1 66911U 98067XX  26037.74954576  .00154731  00000+0  15986-2 0  9999
2 66911  51.6250 221.7970 0002423 254.7739 105.2988 15.63735398 10330
ISS OBJECT XY           
1 66912U 98067XY  26037.72255234  .00083010  00000+0  10639-2 0  9994
2 66912  51.6280 223.1240 0001319 158.7208 201.3840 15.58441538 10314
